LEMUR-2-PETERG          
1 42841U 17042S   26068.48235713  .00023240  00000+0  81076-3 0  9993
2 42841  97.3980 253.6596 0003700 341.6938  18.4169 15.29611459473171
STARLINK-32952          
1 63146U 25043Q   26068.29760970  .00038903  00000+0  14150-2 0  9991
2 63146  43.0027  25.2453 0002260 286.1266  73.9336 15.27597294 57857
